     2.11           G: GLONASS NAV DATA                     RINEX VERSION / TYPE
teqc  2016Apr1      IGN                 20230703 14:12:03UTCPGM / RUN BY / DATE
    18                                                      LEAP SECONDS
Linux 2.4.21-27.ELsmp|Opteron|gcc|Linux x86_64|=+           COMMENT
teqc  2016Apr1      IGN                 20230703 14:12:02UTCCOMMENT
  2023     7     3    1.396983861923D-09                    CORR TO SYSTEM TIME
                                                            END OF HEADER
 8 23  7  3 12 15  0.0-7.150042802095D-05 0.000000000000D+00 4.320000000000D+04
    2.477036083984D+04-6.065139770508D-01 4.656612873077D-09 0.000000000000D+00
    4.143014160156D+03-2.243509292603D-01-9.313225746155D-10 6.000000000000D+00
    4.610252929688D+03 3.502495765686D+00 2.793967723846D-09 0.000000000000D+00
22 23  7  3 12 15  0.0 8.886493742466D-05 6.366462912410D-12 4.320000000000D+04
    1.405726318359D+04 1.026381492615D+00 4.656612873077D-09 0.000000000000D+00
    1.231748535156D+04 2.145986557007D+00-1.862645149231D-09-3.000000000000D+00
    1.738588378906D+04-2.351943969727D+00 9.313225746155D-10 0.000000000000D+00
 7 23  7  3 12 15  0.0 5.935784429312D-05 9.094947017729D-13 4.320000000000D+04
    1.467761669922D+04-2.497696876526D+00 4.656612873077D-09 0.000000000000D+00
    9.873348632812D+03-3.078165054321D-01-9.313225746155D-10 5.000000000000D+00
    1.843970458984D+04 2.153254508972D+00 9.313225746155D-10 0.000000000000D+00
21 23  7  3 12 15  0.0-1.989770680666D-05-2.728484105319D-12 4.320000000000D+04
    1.186139062500D+04 3.850898742676D-01 1.862645149231D-09 0.000000000000D+00
    2.235616455078D+04 2.853364944458D-01-2.793967723846D-09 4.000000000000D+00
    3.057826171875D+03-3.573988914490D+00 9.313225746155D-10 0.000000000000D+00
13 23  7  3 12 15  0.0-3.670435398817D-05-0.000000000000D+00 4.320000000000D+04
    1.141449658203D+04 2.995586395264D-01 2.793967723846D-09 0.000000000000D+00
   -2.212488183594D+04-7.132024765015D-01 2.793967723846D-09-2.000000000000D+00
    5.543542480469D+03-3.457878112793D+00 1.862645149231D-09 0.000000000000D+00
14 23  7  3 12 15  0.0 2.488493919373D-05 0.000000000000D+00 4.320000000000D+04
   -1.947139648438D+03 1.508787155151D+00 2.793967723846D-09 0.000000000000D+00
   -1.503636865234D+04-2.365787506104D+00 1.862645149231D-09-7.000000000000D+00
    2.052307958984D+04-1.593441963196D+00-9.313225746155D-10 0.000000000000D+00
 6 23  7  3 12 15  0.0-1.176754012704D-04-1.818989403546D-12 4.320000000000D+04
   -3.401977539062D+03-3.129983901978D+00 2.793967723846D-09 0.000000000000D+00
    1.076266308594D+04-1.372356414795D-01-9.313225746155D-10-4.000000000000D+00
    2.286433007812D+04-4.025220870972D-01-1.862645149231D-09 0.000000000000D+00
23 23  7  3 12 15  0.0-8.811894804239D-05-9.094947017729D-13 4.320000000000D+04
    8.380262695312D+03 1.284543991089D+00 4.656612873077D-09 0.000000000000D+00
   -6.623688476562D+03 2.907786369324D+00 0.000000000000D+00 3.000000000000D+00
    2.314892871094D+04 3.666601181030D-01 0.000000000000D+00 0.000000000000D+00
 1 23  7  3 12 15  0.0 6.064306944609D-05 0.000000000000D+00 4.407000000000D+04
    2.147438085938D+04 1.758870124817D+00 1.862645149231D-09 0.000000000000D+00
   -5.010861816406D+03-3.970146179199D-02 0.000000000000D+00 1.000000000000D+00
   -1.280770019531D+04 2.965405464172D+00 3.725290298462D-09 0.000000000000D+00
24 23  7  3 12 15  0.0-1.484621316195D-05-1.818989403546D-12 4.479000000000D+04
   -1.701806640625D+03 7.464971542358D-01 1.862645149231D-09 0.000000000000D+00
   -2.049673876953D+04 1.932400703430D+00 1.862645149231D-09 2.000000000000D+00
    1.511086621094D+04 2.705004692078D+00-9.313225746155D-10 0.000000000000D+00
12 23  7  3 12 15  0.0 2.871267497540D-05 0.000000000000D+00 4.320000000000D+04
    1.685734375000D+04-8.976449966431D-01 1.862645149231D-09 0.000000000000D+00
   -1.618430859375D+04 1.085911750793D+00 1.862645149231D-09-1.000000000000D+00
   -1.020963818359D+04-3.192948341370D+00 2.793967723846D-09 0.000000000000D+00
15 23  7  3 12 15  0.0 8.812360465527D-05-0.000000000000D+00 4.332000000000D+04
   -1.310678857422D+04 1.717116355896D+00 9.313225746155D-10 0.000000000000D+00
    5.502592773438D+02-2.449938774109D+00 0.000000000000D+00 0.000000000000D+00
    2.190199218750D+04 1.089491844177D+00-2.793967723846D-09 0.000000000000D+00
17 23  7  3 12 15  0.0-3.481283783913D-06 3.637978807092D-12 4.467000000000D+04
   -1.156392041016D+04-3.034744262695D-01-9.313225746155D-10 0.000000000000D+00
   -2.269663574219D+04-1.190586090088D-01 2.793967723846D-09 4.000000000000D+00
   -1.729859863281D+03 3.584124565125D+00-9.313225746155D-10 0.000000000000D+00
20 23  7  3 12 15  0.0-9.589083492756D-05-0.000000000000D+00 4.320000000000D+04
    9.068432617188D+02-6.628761291504D-01-2.793967723846D-09 0.000000000000D+00
    2.009386621094D+04-2.058020591736D+00-2.793967723846D-09 2.000000000000D+00
   -1.571021435547D+04-2.666810989380D+00 9.313225746155D-10 0.000000000000D+00
10 23  7  3 12 15  0.0-9.468849748373D-05-0.000000000000D+00 4.320000000000D+04
    5.181083984375D+02-1.420369148254D+00-2.793967723846D-09 0.000000000000D+00
    1.628468847656D+04 2.280453681946D+00-1.862645149231D-09-7.000000000000D+00
   -1.960221728516D+04 1.863684654236D+00 9.313225746155D-10 0.000000000000D+00
11 23  7  3 12 15  0.0-9.495206177235D-05-1.000444171950D-11 4.320000000000D+04
    1.235653857422D+04-1.725641250610D+00-9.313225746155D-10 0.000000000000D+00
    5.265634765625D+02 2.523148536682D+00-0.000000000000D+00 0.000000000000D+00
   -2.229194970703D+04-8.980379104614D-01 2.793967723846D-09 0.000000000000D+00
 9 23  7  3 12 15  0.0 1.291558146477D-04 2.728484105319D-12 4.320000000000D+04
   -1.003012841797D+04-4.619083404541D-01-2.793967723846D-09 0.000000000000D+00
    2.229750537109D+04 9.077587127686D-01-2.793967723846D-09-2.000000000000D+00
   -7.395298828125D+03 3.345680236816D+00-9.313225746155D-10 0.000000000000D+00
 2 23  7  3 12 15  0.0-2.264976501465D-05-0.000000000000D+00 4.320000000000D+04
    5.127695800781D+03 3.119467735291D+00-1.862645149231D-09 0.000000000000D+00
   -1.023714013672D+04 2.384061813354D-01 9.313225746155D-10-4.000000000000D+00
   -2.275533056641D+04 5.886983871460D-01 1.862645149231D-09 0.000000000000D+00
16 23  7  3 12 15  0.0 1.626741141081D-05 9.094947017729D-13 4.320000000000D+04
   -1.673079980469D+04 9.323644638062D-01-9.313225746155D-10 0.000000000000D+00
    1.612023535156D+04-1.116803169250D+00-1.862645149231D-09-1.000000000000D+00
    1.058753515625D+04 3.174567222595D+00-2.793967723846D-09 0.000000000000D+00
 5 23  7  3 12 15  0.0 1.151897013187D-04 9.094947017729D-13 4.320000000000D+04
   -2.217000390625D+04-1.659547805786D+00-1.862645149231D-09 0.000000000000D+00
    3.664747558594D+03 2.001953125000D-02-0.000000000000D+00 1.000000000000D+00
    1.206350927734D+04-3.060975074768D+00-4.656612873077D-09 0.000000000000D+00
 4 23  7  3 12 15  0.0 1.936303451657D-04 9.094947017729D-13 4.320000000000D+04
   -2.469369580078D+04 6.271018981934D-01-5.587935447693D-09 0.000000000000D+00
   -4.294545410156D+03 2.438859939575D-01 9.313225746155D-10 6.000000000000D+00
   -4.679001464844D+03-3.511816978455D+00-3.725290298462D-09 0.000000000000D+00
18 23  7  3 12 15  0.0 8.970219641924D-05 9.094947017729D-13 4.320000000000D+04
   -1.421516601562D+04-1.111420631409D+00-5.587935447693D-09 1.000000000000D+00
   -1.279937353516D+04-2.034918785095D+00 1.862645149231D-09-3.000000000000D+00
   -1.684146630859D+04 2.487467765808D+00-9.313225746155D-10 0.000000000000D+00
 3 23  7  3 12 15  0.0 8.086208254099D-05 0.000000000000D+00 4.320000000000D+04
   -1.386885546875D+04 2.581008911133D+00-5.587935447693D-09 0.000000000000D+00
   -9.994468750000D+03 2.980365753174D-01 1.862645149231D-09 5.000000000000D+00
   -1.886254248047D+04-2.055594444275D+00-0.000000000000D+00 0.000000000000D+00
19 23  7  3 12 15  0.0-2.384958788753D-04-9.094947017729D-13 4.383000000000D+04
   -1.040388085938D+04-1.265234947205D+00-5.587935447693D-09 0.000000000000D+00
    1.922544433594D+03-2.920499801636D+00 0.000000000000D+00 3.000000000000D+00
   -2.321764550781D+04 3.245897293091D-01-0.000000000000D+00 0.000000000000D+00
 8 23  7  3 12 45  0.0-7.149949669838D-05 0.000000000000D+00 4.500000000000D+04
    2.289999414062D+04-1.454799652100D+00 5.587935447693D-09 0.000000000000D+00
    3.830015625000D+03-8.439922332764D-02-1.862645149231D-09 6.000000000000D+00
    1.065597167969D+04 3.171594619751D+00 2.793967723846D-09 0.000000000000D+00
22 23  7  3 12 45  0.0 8.887611329556D-05 6.366462912410D-12 4.500000000000D+04
    1.591195654297D+04 9.913930892944D-01 3.725290298462D-09 0.000000000000D+00
    1.552768115234D+04 1.404388427734D+00-2.793967723846D-09-3.000000000000D+00
    1.253622949219D+04-3.001686096191D+00 9.313225746155D-10 0.000000000000D+00
 7 23  7  3 12 45  0.0 5.936063826084D-05 9.094947017729D-13 4.500000000000D+04
    9.743581542969D+03-2.939678192139D+00 4.656612873077D-09 0.000000000000D+00
    9.656406250000D+03 8.737564086914D-02-1.862645149231D-09 5.000000000000D+00
    2.155666015625D+04 1.287652015686D+00 0.000000000000D+00 0.000000000000D+00
21 23  7  3 12 45  0.0-1.990329474211D-05-2.728484105319D-12 4.500000000000D+04
    1.219087695312D+04-5.605983734131D-02 0.000000000000D+00 0.000000000000D+00
    2.212883154297D+04-5.172491073608D-01-2.793967723846D-09 4.000000000000D+00
   -3.410520019531D+03-3.566301345825D+00 9.313225746155D-10 0.000000000000D+00
14 23  7  3 12 45  0.0 2.488493919373D-05 0.000000000000D+00 4.500000000000D+04
    2.581181640625D+02 9.402542114258D-01 3.725290298462D-09 0.000000000000D+00
   -1.910959277344D+04-2.112104415894D+00 1.862645149231D-09-7.000000000000D+00
    1.689920214844D+04-2.407055854797D+00-0.000000000000D+00 0.000000000000D+00
